CCSDS_OMM_VERS = 2.0
CREATION_DATE  = 
ORIGINATOR     = 

OBJECT_NAME    = ISS (ZARYA)
OBJECT_ID      = 1998-067A
CENTER_NAME    = EARTH
REF_FRAME      = TEME
TIME_SYSTEM    = UTC
MEAN_ELEMENT_THEORY = SGP/SGP4

EPOCH          = 2025-11-27T21:34:59.940768
MEAN_MOTION    = 15.49155559
ECCENTRICITY   = .00038682
INCLINATION    = 51.6314
RA_OF_ASC_NODE = 215.9428
ARG_OF_PERICENTER = 177.5993
MEAN_ANOMALY   = 182.5015

EPHEMERIS_TYPE = 0
CLASSIFICATION_TYPE = U
NORAD_CAT_ID   = 25544
ELEMENT_SET_NO = 999
REV_AT_EPOCH   = 54055
BSTAR          = .80752527E-4
MEAN_MOTION_DOT = .4025E-4
MEAN_MOTION_DDOT = 0

CCSDS_OMM_VERS = 2.0
CREATION_DATE  = 
ORIGINATOR     = 

OBJECT_NAME    = CSS (TIANHE)
OBJECT_ID      = 2021-035A
CENTER_NAME    = EARTH
REF_FRAME      = TEME
TIME_SYSTEM    = UTC
MEAN_ELEMENT_THEORY = SGP/SGP4

EPOCH          = 2025-11-27T20:23:58.978752
MEAN_MOTION    = 15.58344779
ECCENTRICITY   = .00107194
INCLINATION    = 41.4664
RA_OF_ASC_NODE = 107.0411
ARG_OF_PERICENTER = 283.2651
MEAN_ANOMALY   = 76.6991

EPHEMERIS_TYPE = 0
CLASSIFICATION_TYPE = U
NORAD_CAT_ID   = 48274
ELEMENT_SET_NO = 999
REV_AT_EPOCH   = 26170
BSTAR          = .21578948E-3
MEAN_MOTION_DOT = .16597E-3
MEAN_MOTION_DDOT = 0

CCSDS_OMM_VERS = 2.0
CREATION_DATE  = 
ORIGINATOR     = 

OBJECT_NAME    = ISS (NAUKA)
OBJECT_ID      = 2021-066A
CENTER_NAME    = EARTH
REF_FRAME      = TEME
TIME_SYSTEM    = UTC
MEAN_ELEMENT_THEORY = SGP/SGP4

EPOCH          = 2025-11-27T21:34:59.940768
MEAN_MOTION    = 15.49155559
ECCENTRICITY   = .00038682
INCLINATION    = 51.6314
RA_OF_ASC_NODE = 215.9428
ARG_OF_PERICENTER = 177.5993
MEAN_ANOMALY   = 182.5015

EPHEMERIS_TYPE = 0
CLASSIFICATION_TYPE = U
NORAD_CAT_ID   = 49044
ELEMENT_SET_NO = 999
REV_AT_EPOCH   = 23044
BSTAR          = .80752527E-4
MEAN_MOTION_DOT = .4025E-4
MEAN_MOTION_DDOT = 0

CCSDS_OMM_VERS = 2.0
CREATION_DATE  = 
ORIGINATOR     = 

OBJECT_NAME    = CSS (WENTIAN)
OBJECT_ID      = 2022-085A
CENTER_NAME    = EARTH
REF_FRAME      = TEME
TIME_SYSTEM    = UTC
MEAN_ELEMENT_THEORY = SGP/SGP4

EPOCH          = 2025-11-27T20:23:58.978752
MEAN_MOTION    = 15.58344779
ECCENTRICITY   = .00107194
INCLINATION    = 41.4664
RA_OF_ASC_NODE = 107.0411
ARG_OF_PERICENTER = 283.2651
MEAN_ANOMALY   = 76.6991

EPHEMERIS_TYPE = 0
CLASSIFICATION_TYPE = U
NORAD_CAT_ID   = 53239
ELEMENT_SET_NO = 999
REV_AT_EPOCH   = 17384
BSTAR          = .21578948E-3
MEAN_MOTION_DOT = .16597E-3
MEAN_MOTION_DDOT = 0

CCSDS_OMM_VERS = 2.0
CREATION_DATE  = 
ORIGINATOR     = 

OBJECT_NAME    = CSS (MENGTIAN)
OBJECT_ID      = 2022-143A
CENTER_NAME    = EARTH
REF_FRAME      = TEME
TIME_SYSTEM    = UTC
MEAN_ELEMENT_THEORY = SGP/SGP4

EPOCH          = 2025-11-27T20:23:58.978752
MEAN_MOTION    = 15.58344779
ECCENTRICITY   = .00107194
INCLINATION    = 41.4664
RA_OF_ASC_NODE = 107.0411
ARG_OF_PERICENTER = 283.2651
MEAN_ANOMALY   = 76.6991

EPHEMERIS_TYPE = 0
CLASSIFICATION_TYPE = U
NORAD_CAT_ID   = 54216
ELEMENT_SET_NO = 999
REV_AT_EPOCH   = 15864
BSTAR          = .21578948E-3
MEAN_MOTION_DOT = .16597E-3
MEAN_MOTION_DDOT = 0

CCSDS_OMM_VERS = 2.0
CREATION_DATE  = 
ORIGINATOR     = 

OBJECT_NAME    = SOYUZ-MS 27
OBJECT_ID      = 2025-072A
CENTER_NAME    = EARTH
REF_FRAME      = TEME
TIME_SYSTEM    = UTC
MEAN_ELEMENT_THEORY = SGP/SGP4

EPOCH          = 2025-11-27T21:34:59.940768
MEAN_MOTION    = 15.49155559
ECCENTRICITY   = .00038682
INCLINATION    = 51.6314
RA_OF_ASC_NODE = 215.9428
ARG_OF_PERICENTER = 177.5993
MEAN_ANOMALY   = 182.5015

EPHEMERIS_TYPE = 0
CLASSIFICATION_TYPE = U
NORAD_CAT_ID   = 63520
ELEMENT_SET_NO = 999
REV_AT_EPOCH   = 2020
BSTAR          = .80752527E-4
MEAN_MOTION_DOT = .4025E-4
MEAN_MOTION_DDOT = 0

CCSDS_OMM_VERS = 2.0
CREATION_DATE  = 
ORIGINATOR     = 

OBJECT_NAME    = SHENZHOU-20 (SZ-20)
OBJECT_ID      = 2025-082A
CENTER_NAME    = EARTH
REF_FRAME      = TEME
TIME_SYSTEM    = UTC
MEAN_ELEMENT_THEORY = SGP/SGP4

EPOCH          = 2025-11-27T20:23:58.978752
MEAN_MOTION    = 15.58344779
ECCENTRICITY   = .00107194
INCLINATION    = 41.4664
RA_OF_ASC_NODE = 107.0411
ARG_OF_PERICENTER = 283.2651
MEAN_ANOMALY   = 76.6991

EPHEMERIS_TYPE = 0
CLASSIFICATION_TYPE = U
NORAD_CAT_ID   = 63632
ELEMENT_SET_NO = 999
REV_AT_EPOCH   = 25530
BSTAR          = .21578948E-3
MEAN_MOTION_DOT = .16597E-3
MEAN_MOTION_DDOT = 0

CCSDS_OMM_VERS = 2.0
CREATION_DATE  = 
ORIGINATOR     = 

OBJECT_NAME    = PROGRESS-MS 31
OBJECT_ID      = 2025-146A
CENTER_NAME    = EARTH
REF_FRAME      = TEME
TIME_SYSTEM    = UTC
MEAN_ELEMENT_THEORY = SGP/SGP4

EPOCH          = 2025-11-27T21:34:59.940768
MEAN_MOTION    = 15.49155559
ECCENTRICITY   = .00038682
INCLINATION    = 51.6314
RA_OF_ASC_NODE = 215.9428
ARG_OF_PERICENTER = 177.5993
MEAN_ANOMALY   = 182.5015

EPHEMERIS_TYPE = 0
CLASSIFICATION_TYPE = U
NORAD_CAT_ID   = 64751
ELEMENT_SET_NO = 999
REV_AT_EPOCH   = 675
BSTAR          = .80752527E-4
MEAN_MOTION_DOT = .4025E-4
MEAN_MOTION_DDOT = 0

CCSDS_OMM_VERS = 2.0
CREATION_DATE  = 
ORIGINATOR     = 

OBJECT_NAME    = TIANZHOU-9
OBJECT_ID      = 2025-149A
CENTER_NAME    = EARTH
REF_FRAME      = TEME
TIME_SYSTEM    = UTC
MEAN_ELEMENT_THEORY = SGP/SGP4

EPOCH          = 2025-11-27T20:23:58.978752
MEAN_MOTION    = 15.58344779
ECCENTRICITY   = .00107194
INCLINATION    = 41.4664
RA_OF_ASC_NODE = 107.0411
ARG_OF_PERICENTER = 283.2651
MEAN_ANOMALY   = 76.6991

EPHEMERIS_TYPE = 0
CLASSIFICATION_TYPE = U
NORAD_CAT_ID   = 64786
ELEMENT_SET_NO = 999
REV_AT_EPOCH   = 25530
BSTAR          = .21578948E-3
MEAN_MOTION_DOT = .16597E-3
MEAN_MOTION_DDOT = 0

CCSDS_OMM_VERS = 2.0
CREATION_DATE  = 
ORIGINATOR     = 

OBJECT_NAME    = CREW DRAGON 11
OBJECT_ID      = 2025-166A
CENTER_NAME    = EARTH
REF_FRAME      = TEME
TIME_SYSTEM    = UTC
MEAN_ELEMENT_THEORY = SGP/SGP4

EPOCH          = 2025-11-27T21:34:59.940768
MEAN_MOTION    = 15.49155559
ECCENTRICITY   = .00038682
INCLINATION    = 51.6314
RA_OF_ASC_NODE = 215.9428
ARG_OF_PERICENTER = 177.5993
MEAN_ANOMALY   = 182.5015

EPHEMERIS_TYPE = 0
CLASSIFICATION_TYPE = U
NORAD_CAT_ID   = 65077
ELEMENT_SET_NO = 999
REV_AT_EPOCH   = 214
BSTAR          = .80752527E-4
MEAN_MOTION_DOT = .4025E-4
MEAN_MOTION_DDOT = 0

CCSDS_OMM_VERS = 2.0
CREATION_DATE  = 
ORIGINATOR     = 

OBJECT_NAME    = DRAGON CRS-33
OBJECT_ID      = 2025-186A
CENTER_NAME    = EARTH
REF_FRAME      = TEME
TIME_SYSTEM    = UTC
MEAN_ELEMENT_THEORY = SGP/SGP4

EPOCH          = 2025-11-27T21:34:59.940768
MEAN_MOTION    = 15.49155559
ECCENTRICITY   = .00038682
INCLINATION    = 51.6314
RA_OF_ASC_NODE = 215.9428
ARG_OF_PERICENTER = 177.5993
MEAN_ANOMALY   = 182.5015

EPHEMERIS_TYPE = 0
CLASSIFICATION_TYPE = U
NORAD_CAT_ID   = 65304
ELEMENT_SET_NO = 999
REV_AT_EPOCH   = 11
BSTAR          = .80752527E-4
MEAN_MOTION_DOT = .4025E-4
MEAN_MOTION_DDOT = 0

