ISS (ZARYA)             
1 25544U 98067A   25331.89930486  .00004025  00000+0  80753-4 0  9998
2 25544  51.6314 215.9428 0003868 177.5993 182.5015 15.49155559540559
CSS (TIANHE)            
1 48274U 21035A   25331.84998818  .00016597  00000+0  21579-3 0  9999
2 48274  41.4664 107.0411 0010719 283.2651  76.6991 15.58344779261708
ISS (NAUKA)             
1 49044U 21066A   25331.89930487  .00004025  00000+0  80753-4 0  9995
2 49044  51.6314 215.9428 0003868 177.5993 182.5015 15.49155559230444
CSS (WENTIAN)           
1 53239U 22085A   25331.84998818  .00016597  00000+0  21579-3 0  9992
2 53239  41.4664 107.0411 0010719 283.2651  76.6991 15.58344779173842
CSS (MENGTIAN)          
1 54216U 22143A   25331.84998818  .00016597  00000+0  21579-3 0  9993
2 54216  41.4664 107.0411 0010719 283.2651  76.6991 15.58344779158649
SOYUZ-MS 27             
1 63520U 25072A   25331.89930487  .00004025  00000+0  80753-4 0  9991
2 63520  51.6314 215.9428 0003868 177.5993 182.5015 15.49155559 20200
SHENZHOU-20 (SZ-20)     
1 63632U 25082A   25331.84998818  .00016597  00000+0  21579-3 0  9990
2 63632  41.4664 107.0411 0010719 283.2651  76.6991 15.58344779255302
PROGRESS-MS 31          
1 64751U 25146A   25331.89930487  .00004025  00000+0  80753-4 0  9990
2 64751  51.6314 215.9428 0003868 177.5993 182.5015 15.49155559  6751
TIANZHOU-9              
1 64786U 25149A   25331.84998818  .00016597  00000+0  21579-3 0  9995
2 64786  41.4664 107.0411 0010719 283.2651  76.6991 15.58344779255303
CREW DRAGON 11          
1 65077U 25166A   25331.89930487  .00004025  00000+0  80753-4 0  9994
2 65077  51.6314 215.9428 0003868 177.5993 182.5015 15.49155559  2142
DRAGON CRS-33           
1 65304U 25186A   25331.89930487  .00004025  00000+0  80753-4 0  9999
2 65304  51.6314 215.9428 0003868 177.5993 182.5015 15.49155559   110
